NORAD_CAT_ID,OBJECT_NAME,OBJECT_TYPE,EPOCH,MEAN_MOTION,ECCENTRICITY,INCLINATION,RA_OF_ASC_NODE,ARG_OF_PERICENTER,MEAN_ANOMALY,BSTAR,MEAN_MOTION_DOT,MEAN_MOTION_DDOT,TLE_LINE0,TLE_LINE1,TLE_LINE2,SEMIMAJOR_AXIS,PERIOD,APOGEE,PERIGEE,DECAYED
52578.0,STARLINK-3833,PAYLOAD,2022-06-12 14:00:01,15.41290539,0.0001492,53.2173,148.7668,48.4666,248.5817,-0.021641,-0.00845796,0.0,0 STARLINK-3833,1 52578U 22051AU  22163.58334491 -.00845796  00000-0 -21641-1 0  9994,2 52578  53.2173 148.7668 0001492  48.4666 248.5817 15.41290539  1308,6820.436,93.428,443.319,441.284,0.0
52578.0,STARLINK-3833,PAYLOAD,2022-06-12 22:00:00,15.40691213,0.000156,53.2175,147.1958,40.4265,306.8431,-0.0219,-0.00839468,0.0,0 STARLINK-3833,1 52578U 22051AU  22163.91667824 -.00839468  00000-0 -21900-1 0  9997,2 52578  53.2175 147.1958 0001560  40.4265 306.8431 15.40691213  5237,6822.205,93.465,445.134,443.006,0.0
52578.0,STARLINK-3833,PAYLOAD,2022-06-13 14:00:01,15.39501527,0.0001472,53.2172,144.0614,45.0772,40.4827,-0.022852,-0.00841827,0.0,0 STARLINK-3833,1 52578U 22051AU  22164.58334491 -.00841827  00000-0 -22852-1 0  9991,2 52578  53.2172 144.0614 0001472  45.0772  40.4827 15.39501527  1305,6825.719,93.537,448.589,446.58,0.0
52578.0,STARLINK-3833,PAYLOAD,2022-06-13 22:00:00,15.38905606,0.0001736,53.2174,142.4945,40.9069,92.7257,-0.023281,-0.00841038,0.0,0 STARLINK-3833,1 52578U 22051AU  22164.91667824 -.00841038  00000-0 -23281-1 0  9998,2 52578  53.2174 142.4945 0001736  40.9069  92.7257 15.38905606  1304,6827.481,93.573,450.532,448.161,0.0
52578.0,STARLINK-3833,PAYLOAD,2022-06-14 14:00:01,15.37715758,0.0001506,53.2173,139.3684,55.8751,171.7535,-0.024301,-0.00843994,0.0,0 STARLINK-3833,1 52578U 22051AU  22165.58334491 -.00843994  00000-0 -24301-1 0  9990,2 52578  53.2173 139.3684 0001506  55.8751 171.7535 15.37715758  1309,6831.003000000002,93.645,453.897,451.839,0.0
52578.0,STARLINK-3833,PAYLOAD,2022-06-14 22:00:00,15.37117692,0.0001645,53.2174,137.8057,44.9955,228.55900000000003,-0.02462,-0.00838982,0.0,0 STARLINK-3833,1 52578U 22051AU  22165.91667824 -.00838982  00000-0 -24620-1 0  9991,2 52578  53.2174 137.8057 0001645  44.9955 228.5590 15.37117692  5541,6832.775,93.682,455.764,453.516,0.0
52578.0,STARLINK-3833,PAYLOAD,2022-06-15 14:00:01,15.35928493,0.0001375,53.2174,134.6881,48.646,314.6098,-0.025738,-0.00843491,0.0,0 STARLINK-3833,1 52578U 22051AU  22166.58334491 -.00843491  00000-0 -25738-1 0  9998,2 52578  53.2174 134.6881 0001375  48.6460 314.6098 15.35928493  1300,6836.301,93.754,459.106,457.226,0.0
52578.0,STARLINK-3833,PAYLOAD,2022-06-15 22:00:00,15.35329954,0.0001595999999999,53.2174,133.1301,39.3576,7.6768,-0.026056,-0.00838069,0.0,0 STARLINK-3833,1 52578U 22051AU  22166.91667824 -.00838069  00000-0 -26056-1 0  9993,2 52578  53.2174 133.1301 0001596  39.3576   7.6768 15.35329954  5697,6838.078,93.791,461.034,458.851,0.0
52578.0,STARLINK-3833,PAYLOAD,2022-06-16 02:00:01,15.35025451,0.0001665,53.2178,132.352,41.7213,206.936,-0.02597,-0.00827982,0.0,0 STARLINK-3833,1 52578U 22051AU  22167.08334491 -.00827982  00000-0 -25970-1 0  9999,2 52578  53.2178 132.3520 0001665  41.7213 206.9360 15.35025451  1308,6838.982,93.81,461.986,459.708,0.0
52578.0,STARLINK-3833,PAYLOAD,2022-06-19 14:00:01,15.28777974,0.0001710999999999,53.2176,116.0942,40.6764,80.6669,-0.032056,-0.00838684,0.0,0 STARLINK-3833,1 52578U 22051AU  22170.58334491 -.00838684  00000-0 -32056-1 0  9992,2 52578  53.2176 116.0942 0001711  40.6764  80.6669 15.28777974  1309,6857.601,94.193,480.64,478.293,0.0
52578.0,STARLINK-3833,PAYLOAD,2022-06-19 20:00:01,15.28329978,0.0001861,53.2176,114.9382,32.075,25.7269,-0.032402,-0.00836328,0.0,0 STARLINK-3833,1 52578U 22051AU  22170.83334491 -.00836328  00000-0 -32402-1 0  9998,2 52578  53.2176 114.9382 0001861  32.0750  25.7269 15.28329978  6296,6858.941,94.22,482.083,479.53,0.0
52578.0,STARLINK-3833,PAYLOAD,2022-06-19 22:00:00,15.2818155,0.0002005,53.2178,114.5538,34.7738,121.7576,-0.032591,-0.00837317,0.0,0 STARLINK-3833,1 52578U 22051AU  22170.91667824 -.00837317  00000-0 -32591-1 0  9994,2 52578  53.2178 114.5538 0002005  34.7738 121.7576 15.28181550  1300,6859.385,94.23,482.626,479.875,0.0
52578.0,STARLINK-3833,PAYLOAD,2022-06-20 14:00:01,15.26991535,0.0001714,53.2176,111.4772,46.1206,178.6389,-0.033884,-0.00839158,0.0,0 STARLINK-3833,1 52578U 22051AU  22171.58334491 -.00839158  00000-0 -33884-1 0  9990,2 52578  53.2176 111.4772 0001714  46.1206 178.6389 15.26991535  1300,6862.949000000001,94.303,485.99,483.637,0.0
52578.0,STARLINK-3833,PAYLOAD,2022-06-20 22:00:00,15.26394878,0.0001887,53.2177,109.9413,38.8169,218.9832,-0.034427,-0.00837413,0.0,0 STARLINK-3833,1 52578U 22051AU  22171.91667824 -.00837413  00000-0 -34427-1 0  9992,2 52578  53.2177 109.9413 0001887  38.8169 218.9832 15.26394878  6462,6864.736999999999,94.34,487.897,485.307,0.0
52578.0,STARLINK-3833,PAYLOAD,2022-06-21 14:00:01,15.25204418,0.000157,53.2176,106.873,42.9418,278.7922,-0.0357829999999999,-0.00839332,0.0,0 STARLINK-3833,1 52578U 22051AU  22172.58334491 -.00839332  00000-0 -35783-1 0  9995,2 52578  53.2176 106.8730 0001570  42.9418 278.7922 15.25204418  1302,6868.309,94.414,491.252,489.095,0.0
52578.0,STARLINK-3833,PAYLOAD,2022-06-21 22:00:00,15.24608985,0.0001706,53.2178,105.3413,37.3538,315.2728,-0.036431,-0.00839346,0.0,0 STARLINK-3833,1 52578U 22051AU  22172.91667824 -.00839346  00000-0 -36431-1 0  9997,2 52578  53.2178 105.3413 0001706  37.3538 315.2728 15.24608985  1305,6870.097,94.45,493.134,490.79,0.0
52578.0,STARLINK-3833,PAYLOAD,2022-06-22 00:00:02,15.24458943,0.0001917,53.2176,104.9592,33.7432,56.5586,-0.036531,-0.00838005,0.0,0 STARLINK-3833,1 52578U 22051AU  22173.00002315 -.00838005  00000-0 -36531-1 0  9998,2 52578  53.2176 104.9592 0001917  33.7432  56.5586 15.24458943  6627,6870.5480000000025,94.46,493.73,491.096,0.0
52578.0,STARLINK-3833,PAYLOAD,2022-06-22 14:00:01,15.23415977,0.0001561,53.2175,102.2813,40.9539,11.3129,-0.037656,-0.00837225,0.0,0 STARLINK-3833,1 52578U 22051AU  22173.58334491 -.00837225  00000-0 -37656-1 0  9996,2 52578  53.2175 102.2813 0001561  40.9539  11.3129 15.23415977  1307,6873.683000000001,94.524,496.621,494.475,0.0
52578.0,STARLINK-3833,PAYLOAD,2022-06-22 22:00:00,15.22821689,0.000183,53.2177,100.7542,34.9393,46.0722,-0.038431,-0.00839309,0.0,0 STARLINK-3833,1 52578U 22051AU  22173.91667824 -.00839309  00000-0 -38431-1 0  9999,2 52578  53.2177 100.7542 0001830  34.9393  46.0722 15.22821689  6760,6875.471,94.561,498.594,496.078,0.0
52578.0,STARLINK-3833,PAYLOAD,2022-06-23 14:00:01,15.21628096,0.000175,53.2175,97.7023,41.1393,95.2177,-0.03962,-0.00835463,0.0,0 STARLINK-3833,1 52578U 22051AU  22174.58334491 -.00835463  00000-0 -39620-1 0  9992,2 52578  53.2175  97.7023 0001750  41.1393  95.2177 15.21628096  1309,6879.066,94.635,502.135,499.727,0.0
52578.0,STARLINK-3833,PAYLOAD,2022-06-23 22:00:00,15.21033237,0.0001871,53.2177,96.1793,40.5789,122.3758,-0.040394,-0.00836858,0.0,0 STARLINK-3833,1 52578U 22051AU  22174.91667824 -.00836858  00000-0 -40394-1 0  9997,2 52578  53.2177  96.1793 0001871  40.5789 122.3758 15.21033237  6910,6880.86,94.672,504.012,501.437,0.0
52578.0,STARLINK-3833,PAYLOAD,2022-06-24 14:00:01,15.19840645,0.0001685,53.2174,93.1355,48.0973,165.9079,-0.041696,-0.00834279,0.0,0 STARLINK-3833,1 52578U 22051AU  22175.58334491 -.00834279  00000-0 -41696-1 0  9993,2 52578  53.2174  93.1355 0001685  48.0973 165.9079 15.19840645  1302,6884.459,94.747,507.484,505.164,0.0
52578.0,STARLINK-3833,PAYLOAD,2022-06-24 22:00:01,15.19245453,0.0001837,53.2176,91.617,42.8747,195.644,-0.042476,-0.0083518,0.0,0 STARLINK-3833,1 52578U 22051AU  22175.91668981 -.00835180  00000-0 -42476-1 0  9993,2 52578  53.2176  91.6170 0001837  42.8747 195.6440 15.19245453  7070,6886.257,94.784,509.387,506.857,0.0
52578.0,STARLINK-3833,PAYLOAD,2022-06-25 14:00:01,15.18052929,0.0001549,53.2175,88.5815,49.7508,235.4605,-0.043858,-0.00842852,0.0,0 STARLINK-3833,1 52578U 22051AU  22176.58334491 -.00842852  00000-0 -43858-1 0  9992,2 52578  53.2175  88.5815 0001549  49.7508 235.4605 15.18052929  1300,6889.863,94.858,512.795,510.66,0.0
52578.0,STARLINK-3833,PAYLOAD,2022-06-25 22:00:00,15.17458785,0.0001764999999999,53.2176,87.0673,40.6928,266.8209,-0.044751,-0.00845231,0.0,0 STARLINK-3833,1 52578U 22051AU  22176.91667824 -.00845231  00000-0 -44751-1 0  9995,2 52578  53.2176  87.0673 0001765  40.6928 266.8209 15.17458785  7227,6891.661,94.895,514.742,512.31,0.0
52578.0,STARLINK-3833,PAYLOAD,2022-06-26 14:00:01,15.16265249,0.0001315999999999,53.2174,84.04,59.7778,290.2609,-0.046131,-0.00842064,0.0,0 STARLINK-3833,1 52578U 22051AU  22177.58335648 -.00842064  00000-0 -46131-1 0  9990,2 52578  53.2174  84.0400 0001316  59.7778 290.2609 15.16265249  1304,6895.276999999999,94.97,518.049,516.235,0.0
52578.0,STARLINK-3833,PAYLOAD,2022-06-26 20:00:01,15.15820607,0.0001678,53.2176,82.9072,48.1665,226.9919,-0.046899,-0.00845087,0.0,0 STARLINK-3833,1 52578U 22051AU  22177.83334491 -.00845087  00000-0 -46899-1 0  9992,2 52578  53.2176  82.9072 0001678  48.1665 226.9919 15.15820607  7362,6896.625,94.998,519.648,517.3330000000002,0.0
52578.0,STARLINK-3833,PAYLOAD,2022-06-26 22:00:00,15.15672148,0.0001636,53.2177,82.5301,42.226000000000006,327.9039,-0.047152,-0.00845979,0.0,0 STARLINK-3833,1 52578U 22051AU  22177.91667824 -.00845979  00000-0 -47152-1 0  9993,2 52578  53.2177  82.5301 0001636  42.2260 327.9039 15.15672148  1302,6897.076,95.007,520.069,517.812,0.0
52578.0,STARLINK-3833,PAYLOAD,2022-06-27 14:00:01,15.14478493,0.0001598,53.2174,79.51100000000002,41.3245,6.9726,-0.048582,-0.00842738,0.0,0 STARLINK-3833,1 52578U 22051AU  22178.58334491 -.00842738  00000-0 -48582-1 0  9996,2 52578  53.2174  79.5110 0001598  41.3245   6.9726 15.14478493  1306,6900.699000000001,95.082,523.6669999999998,521.462,0.0
